NORAD_CAT_ID,OBJECT_NAME,OBJECT_TYPE,EPOCH,MEAN_MOTION,ECCENTRICITY,INCLINATION,RA_OF_ASC_NODE,ARG_OF_PERICENTER,MEAN_ANOMALY,BSTAR,MEAN_MOTION_DOT,MEAN_MOTION_DDOT,TLE_LINE0,TLE_LINE1,TLE_LINE2,SEMIMAJOR_AXIS,PERIOD,APOGEE,PERIGEE,DECAYED
53638.0,STARLINK-4594,PAYLOAD,2023-12-01 01:17:11,15.0884159,0.0002352,53.2177,348.1409,99.6789,260.4469,-5.0987e-05,-1.1e-05,0.0,0 STARLINK-4594,1 53638U 22104BC  23335.05361095 -.00001100  00000-0 -50987-4 0  9996,2 53638  53.2177 348.1409 0002352  99.6789 260.4469 15.08841590 69963,6917.876,95.437,541.368,538.113,0.0
53638.0,STARLINK-4594,PAYLOAD,2023-12-01 07:38:44,15.08843104,0.0002169,53.2177,346.95,113.779,246.343,-6.8468e-06,-3.97e-06,0.0,0 STARLINK-4594,1 53638U 22104BC  23335.31856952 -.00000397  00000-0 -68468-5 0  9997,2 53638  53.2177 346.9500 0002169 113.7790 246.3430 15.08843104 71021,6917.871,95.437,541.236,538.235,0.0
53638.0,STARLINK-4594,PAYLOAD,2023-12-02 07:29:30,15.0887114,0.0002038,53.2163,342.4896,96.6084,263.514,0.0007119,0.0001107,0.0,0 STARLINK-4594,1 53638U 22104BC  23336.31215834  .00011070  00000-0  71190-3 0  9998,2 53638  53.2163 342.4896 0002038  96.6084 263.5140 15.08871140 70158,6917.785,95.436,541.06,538.24,0.0
53638.0,STARLINK-4594,PAYLOAD,2023-12-03 04:09:33,15.08812829,0.0001842,53.2176,338.6213,103.4678,256.6519,-0.0004298,-7.117e-05,0.0,0 STARLINK-4594,1 53638U 22104BC  23337.17330221 -.00007117  00000-0 -42980-3 0  9995,2 53638  53.2176 338.6213 0001842 103.4678 256.6519 15.08812829 70286,6917.963,95.439,541.103,538.554,0.0
53638.0,STARLINK-4594,PAYLOAD,2023-12-03 05:44:56,15.08814077,0.0001829,53.2173,338.3247,99.2547,260.8652,-0.00036746,-6.127e-05,0.0,0 STARLINK-4594,1 53638U 22104BC  23337.23954407 -.00006127  00000-0 -36746-3 0  9993,2 53638  53.2173 338.3247 0001829  99.2547 260.8652 15.08814077 71316,6917.96,95.439,541.09,538.559,0.0
53638.0,STARLINK-4594,PAYLOAD,2023-12-03 12:06:29,15.08817597,0.000184,53.2174,337.1342,101.6396,258.4803,-0.00024823,-4.234e-05,0.0,0 STARLINK-4594,1 53638U 22104BC  23337.50450535 -.00004234  00000-0 -24823-3 0  9996,2 53638  53.2174 337.1342 0001840 101.6396 258.4803 15.08817597 70335,6917.949,95.439,541.087,538.541,0.0
53638.0,STARLINK-4594,PAYLOAD,2023-12-04 04:00:20,15.08834133,0.000188,53.2174,334.1647,102.9176,257.2026,0.00014646,2.043e-05,0.0,0 STARLINK-4594,1 53638U 22104BC  23338.16690713  .00002043  00000-0  14646-3 0  9999,2 53638  53.2174 334.1647 0001880 102.9176 257.2026 15.08834133 70434,6917.898,95.438,541.064,538.463,0.0
53638.0,STARLINK-4594,PAYLOAD,2023-12-04 05:35:44,15.08832695,0.0001904,53.2177,333.8651,103.4438,256.6767,0.00034824,5.257e-05,0.0,0 STARLINK-4594,1 53638U 22104BC  23338.23315002  .00005257  00000-0  34824-3 0  9992,2 53638  53.2177 333.8651 0001904 103.4438 256.6767 15.08832695 71462,6917.903,95.438,541.085,538.451,0.0
53638.0,STARLINK-4594,PAYLOAD,2023-12-05 03:51:07,15.08865785,0.0001944,53.2169,329.7023,110.2038,249.9163,0.0008634,0.00013489,0.0,0 STARLINK-4594,1 53638U 22104BC  23339.16050237  .00013489  00000-0  86340-3 0  9997,2 53638  53.2169 329.7023 0001944 110.2038 249.9163 15.08865785 70589,6917.802,95.436,541.011,538.322,0.0
53638.0,STARLINK-4594,PAYLOAD,2023-12-05 08:37:16,15.08879216,0.0001948,53.2163,328.8093,110.3317,249.7884,0.0011097,0.00017436,0.0,0 STARLINK-4594,1 53638U 22104BC  23339.35921690  .00017436  00000-0  11097-2 0  9990,2 53638  53.2163 328.8093 0001948 110.3317 249.7884 15.08879216 71634,6917.761,95.435,540.973,538.278,0.0
53638.0,STARLINK-4594,PAYLOAD,2023-12-06 03:41:53,15.08870411,0.0002231,53.2168,325.2411,103.5572,256.5669,0.00077516,0.0001208,0.0,0 STARLINK-4594,1 53638U 22104BC  23340.15409144  .00012080  00000-0  77516-3 0  9994,2 53638  53.2168 325.2411 0002231 103.5572 256.5669 15.08870411 70732,6917.787,95.436,541.196,538.109,0.0
53638.0,STARLINK-4594,PAYLOAD,2023-12-06 08:28:02,15.08894446,0.0002694,53.2188,324.347,103.0888,257.0405,0.001744,0.00027619,0.0,0 STARLINK-4594,1 53638U 22104BC  23340.35280484  .00027619  00000-0  17440-2 0  9993,2 53638  53.2188 324.3470 0002694 103.0888 257.0405 15.08894446 70768,6917.714,95.434,541.443,537.715,0.0
53638.0,STARLINK-4594,PAYLOAD,2023-12-06 22:46:30,15.08844062,0.0002599,53.2163,321.6744,112.0766,248.0502,0.0010798,0.00016941,0.0,0 STARLINK-4594,1 53638U 22104BC  23340.94896551  .00016941  00000-0  10798-2 0  9991,2 53638  53.2163 321.6744 0002599 112.0766 248.0502 15.08844062 71874,6917.868,95.437,541.531,537.935,0.0
53638.0,STARLINK-4594,PAYLOAD,2023-12-07 03:32:40,15.08843299,0.0001661,53.2175,320.7755,113.0436,247.0731,-0.00016175,-2.862e-05,0.0,0 STARLINK-4594,1 53638U 22104BC  23341.14768709 -.00002862  00000-0 -16175-3 0  9992,2 53638  53.2175 320.7755 0001661 113.0436 247.0731 15.08843299 70887,6917.87,95.437,540.884,538.586,0.0
53638.0,STARLINK-4594,PAYLOAD,2023-12-07 08:18:50,15.08828537,0.0001543,53.2161,319.8868,94.6545,265.4623,-0.00012988,-2.354e-05,0.0,0 STARLINK-4594,1 53638U 22104BC  23341.34641204 -.00002354  00000-0 -12988-3 0  9998,2 53638  53.2161 319.8868 0001543  94.6545 265.4623 15.08828537 70916,6917.915,95.438,540.848,538.713,0.0
53638.0,STARLINK-4594,PAYLOAD,2023-12-08 04:58:51,15.08840303,0.0001723,53.2171,316.0211,83.1094,277.0094,0.00018434,2.647e-05,0.0,0 STARLINK-4594,1 53638U 22104BC  23342.20753670  .00002647  00000-0  18434-3 0  9990,2 53638  53.2171 316.0211 0001723  83.1094 277.0094 15.08840303 71041,6917.879,95.438,540.936,538.553,0.0
53638.0,STARLINK-4594,PAYLOAD,2023-12-08 22:28:06,15.08839324,0.0001792,53.2172,312.7518,88.9277,271.192,0.00036966,5.6e-05,0.0,0 STARLINK-4594,1 53638U 22104BC  23342.93618169  .00005600  00000-0  36966-3 0  9995,2 53638  53.2172 312.7518 0001792  88.9277 271.1920 15.08839324 72176,6917.882,95.438,540.987,538.508,0.0
53638.0,STARLINK-4594,PAYLOAD,2023-12-09 04:49:38,15.08844663,0.0001765,53.217,311.5625,92.7585,267.3609,0.00040561,6.174e-05,0.0,0 STARLINK-4594,1 53638U 22104BC  23343.20114014  .00006174  00000-0  40561-3 0  9999,2 53638  53.2170 311.5625 0001765  92.7585 267.3609 15.08844663 72213,6917.866,95.437,540.952,538.51,0.0
53638.0,STARLINK-4594,PAYLOAD,2023-12-09 22:18:53,15.08840893,0.0001922,53.2175,308.2932,101.2387,258.8821,0.00013009,1.783e-05,0.0,0 STARLINK-4594,1 53638U 22104BC  23343.92978084  .00001783  00000-0  13009-3 0  9991,2 53638  53.2175 308.2932 0001922 101.2387 258.8821 15.08840893 72327,6917.878,95.437,541.072,538.413,0.0
53638.0,STARLINK-4594,PAYLOAD,2023-12-11 02:55:49,15.08839066,0.0001869,53.2176,302.94,104.2414,255.8786,5.3837e-05,5.69e-06,0.0,0 STARLINK-4594,1 53638U 22104BC  23345.12210192  .00000569  00000-0  53837-4 0  9999,2 53638  53.2176 302.9400 0001869 104.2414 255.8786 15.08839066 71486,6917.883,95.438,541.041,538.455,0.0
53638.0,STARLINK-4594,PAYLOAD,2023-12-12 04:21:59,15.08842647,0.0001626,53.2169,298.1831,92.2379,267.88,0.00014555,2.029e-05,0.0,0 STARLINK-4594,1 53638U 22104BC  23346.18194287  .00002029  00000-0  14555-3 0  9998,2 53638  53.2169 298.1831 0001626  92.2379 267.8800 15.08842647 71646,6917.872,95.437,540.862,538.612,0.0
53638.0,STARLINK-4594,PAYLOAD,2023-12-13 04:12:46,15.08846369,0.0001698,53.217,293.7202,77.5068,282.6114,0.00018143,2.601e-05,0.0,0 STARLINK-4594,1 53638U 22104BC  23347.17554146  .00002601  00000-0  18143-3 0  9995,2 53638  53.2170 293.7202 0001698  77.5068 282.6114 15.08846369 72819,6917.861,95.437,540.901,538.551,0.0
53638.0,STARLINK-4594,PAYLOAD,2023-12-14 04:03:34,15.08844864,0.0002111,53.2186,289.2561,66.221,293.9003,0.00011787,1.588e-05,0.0,0 STARLINK-4594,1 53638U 22104BC  23348.16914381  .00001588  00000-0  11787-3 0  9996,2 53638  53.2186 289.2561 0002111  66.2210 293.9003 15.08844864 71942,6917.866,95.437,541.191,538.27,0.0
53638.0,STARLINK-4594,PAYLOAD,2023-12-15 02:18:57,15.08853459,0.0001982,53.2174,285.0968,68.8079,291.3125,0.0001562,2.2e-05,0.0,0 STARLINK-4594,1 53638U 22104BC  23349.09649756  .00002200  00000-0  15620-3 0  9992,2 53638  53.2174 285.0968 0001982  68.8079 291.3125 15.08853459 73107,6917.839,95.437,541.075,538.333,0.0
53638.0,STARLINK-4594,PAYLOAD,2023-12-15 22:58:58,15.0883746,0.0001513,53.2178,281.2311,81.0677,279.0486,-1.563e-05,-5.37e-06,0.0,0 STARLINK-4594,1 53638U 22104BC  23349.95762588 -.00000537  00000-0 -15630-4 0  9991,2 53638  53.2178 281.2311 0001513  81.0677 279.0486 15.08837460 73233,6917.888,95.438,540.8,538.706,0.0
53638.0,STARLINK-4594,PAYLOAD,2023-12-16 02:09:45,15.08837109,0.0001602,53.2172,280.6381,101.0808,259.0365,-3.1306e-05,-7.86e-06,0.0,0 STARLINK-4594,1 53638U 22104BC  23350.09010533 -.00000786  00000-0 -31306-4 0  9998,2 53638  53.2172 280.6381 0001602 101.0808 259.0365 15.08837109 72238,6917.889,95.438,540.862,538.646,0.0
53638.0,STARLINK-4594,PAYLOAD,2023-12-17 02:00:31,15.08848311,0.0001595,53.2168,276.1798,111.9623,248.1538,6.2152e-06,-1.89e-06,0.0,0 STARLINK-4594,1 53638U 22104BC  23351.08370157 -.00000189  00000-0  62152-5 0  9999,2 53638  53.2168 276.1798 0001595 111.9623 248.1538 15.08848311 72385,6917.855,95.437,540.823,538.617,0.0
53638.0,STARLINK-4594,PAYLOAD,2023-12-17 22:40:32,15.08851671,0.0001465,53.2164,272.3117,98.0955,262.0203,0.00037108,5.625e-05,0.0,0 STARLINK-4594,1 53638U 22104BC  23351.94482113  .00005625  00000-0  37108-3 0  9990,2 53638  53.2164 272.3117 0001465  98.0955 262.0203 15.08851671 73538,6917.845,95.437,540.723,538.696,0.0
53638.0,STARLINK-4594,PAYLOAD,2023-12-18 01:51:18,15.08862618,0.0001537,53.2165,271.7181,96.4682,263.6486,0.00056452,8.713e-05,0.0,0 STARLINK-4594,1 53638U 22104BC  23352.07729807  .00008713  00000-0  56452-3 0  9993,2 53638  53.2165 271.7181 0001537  96.4682 263.6486 15.08862618 72534,6917.811,95.436,540.74,538.613,0.0
53638.0,STARLINK-4594,PAYLOAD,2023-12-18 22:31:19,15.08838339,0.0001478,53.2163,267.8524,105.3972,254.7183,-2.6483e-05,-7.09e-06,0.0,0 STARLINK-4594,1 53638U 22104BC  23352.93842546 -.00000709  00000-0 -26483-4 0  9995,2 53638  53.2163 267.8524 0001478 105.3972 254.7183 15.08838339 73680,6917.885,95.438,540.773,538.728,0.0
